0 MOLNIYA 3-45
1 22729U 93049A   13281.08823402  .00206562 -25240-4  94202-4 0  7784
2 22729 062.1011 039.6684 7316701 274.6455 013.1410 02.31704988147957
0 MOLNIYA 3-45
1 22729U 93049A   13282.38137367  .00247963 -11799-4  10828-3 0  7792
2 22729 062.1022 039.3944 7312848 274.6754 013.1511 02.32263064147986
0 MOLNIYA 3-45
1 22729U 93049A   13282.81156750  .00281949 -64119-5  11823-3 0  7824
2 22729 062.1025 039.3028 7311496 274.6859 013.1551 02.32486577147997
0 MOLNIYA 3-45
1 22729U 93049A   13282.81163469  .00255977 -64103-5  11195-3 0  7804
2 22729 062.1024 039.3028 7311163 274.6848 013.1579 02.32482027147991
0 MOLNIYA 3-45
1 22729U 93049A   13282.81163469  .00255977 -64103-5  11195-3 0  7815
2 22729 062.1024 039.3028 7311163 274.6848 013.1579 02.32482027147991
0 MOLNIYA 3-45
1 22729U 93049A   13285.81220825  .00281435  16241-4  10413-3 0  7850
2 22729 062.1047 038.6627 7300101 274.7516 013.2111 02.34104851148066
0 MOLNIYA 3-45
1 22729U 93049A   13285.81221309  .00282286  16234-4  11045-3 0  7846
2 22729 062.1048 038.6628 7299527 274.7540 013.2146 02.34117872148069
0 MOLNIYA 3-45
1 22729U 93049A   13286.66570970  .00265527  13068-4  98122-4 0  7866
2 22729 062.1052 038.4802 7296461 274.7771 013.2311 02.34574209148083
0 MOLNIYA 3-45
1 22729U 93049A   13287.09181381  .00262253  99428-5  96134-4 0  7878
2 22729 062.1054 038.3888 7294517 274.7915 013.2417 02.34831984148092
0 MOLNIYA 3-45
1 22729U 93049A   13287.94273403  .00258769  15782-5  91734-4 0  7889
2 22729 062.1060 038.2058 7291071 274.8119 013.2621 02.35308089148112
0 MOLNIYA 3-45
1 22729U 93049A   13288.36754130  .00252655 -31842-5  89187-4 0  7903
2 22729 062.1063 038.1142 7289247 274.8190 013.2736 02.35545380148124
0 MOLNIYA 3-45
1 22729U 93049A   13288.36754279  .00253105 -31887-5  86326-4 0  7897
2 22729 062.1065 038.1142 7289598 274.8146 013.2724 02.35537005148128
0 MOLNIYA 3-45
1 22729U 93049A   13288.79192944  .00250659 -80018-5  85016-4 0  7918
2 22729 062.1069 038.0215 7287673 274.8196 013.2850 02.35788877148135
0 MOLNIYA 3-45
1 22729U 93049A   13288.79192944  .00250659 -80018-5  85016-4 0  7929
2 22729 062.1069 038.0215 7287673 274.8196 013.2850 02.35788877148135
0 MOLNIYA 3-45
1 22729U 93049A   13290.90775405  .00233919 -25322-4  80316-4 0  7939
2 22729 062.1083 037.5646 7279337 274.8716 013.3263 02.36843156148186
0 MOLNIYA 3-45
1 22729U 93049A   13291.32980817  .00234900 -26474-4  82424-4 0  7944
2 22729 062.1087 037.4724 7277713 274.8784 013.3343 02.37029438148197
0 MOLNIYA 3-45
1 22729U 93049A   13293.01459178  .00249293 -22522-4  82728-4 0  7952
2 22729 062.1093 037.1073 7272525 274.9230 013.3497 02.37767763148236
0 MOLNIYA 3-45
1 22729U 93049A   13293.43493050  .00263248 -19741-4  85209-4 0  7968
2 22729 062.1099 037.0148 7271341 274.9242 013.3552 02.37951034148241
0 MOLNIYA 3-45
1 22729U 93049A   13293.85498815  .00258445 -16445-4  90390-4 0  7977
2 22729 062.1103 036.9230 7269131 274.9323 013.3664 02.38155903148258
0 MOLNIYA 3-45
1 22729U 93049A   13294.27469578  .00259832 -12781-4  91064-4 0  7988
2 22729 062.1107 036.8308 7267772 274.9424 013.3708 02.38332646148269
0 MOLNIYA 3-45
1 22729U 93049A   13294.27469578  .00259832 -12781-4  91064-4 0  7999
2 22729 062.1107 036.8308 7267772 274.9424 013.3708 02.38332646148269
